{
    "links": {
        "self": "http://www.neowsapp.com/rest/v1/neo/3884240?api_key=iIulBulltgU6a56xZRHN4H3l9WmuAYTsLGpBGhQ2"
    },
    "id": "3884240",
    "neo_reference_id": "3884240",
    "name": "(2019 UZ10)",
    "designation": "2019 UZ10",
    "nasa_jpl_url": "http://ssd.jpl.nasa.gov/sbdb.cgi?sstr=3884240",
    "absolute_magnitude_h": 23.9,
    "estimated_diameter": {
        "kilometers": {
            "estimated_diameter_min": 0.04411182,
            "estimated_diameter_max": 0.0986370281
        },
        "meters": {
            "estimated_diameter_min": 44.1118199997,
            "estimated_diameter_max": 98.6370281305
        },
        "miles": {
            "estimated_diameter_min": 0.0274098057,
            "estimated_diameter_max": 0.0612901888
        },
        "feet": {
            "estimated_diameter_min": 144.7238235278,
            "estimated_diameter_max": 323.6123073718
        }
    },
    "is_potentially_hazardous_asteroid": false,
    "close_approach_data": [
        {
            "close_approach_date": "2019-10-17",
            "close_approach_date_full": "2019-Oct-17 13:40",
            "epoch_date_close_approach": 1571319600000,
            "relative_velocity": {
                "kilometers_per_second": "15.2038147107",
                "kilometers_per_hour": "54733.7329586881",
                "miles_per_hour": "34009.4131264693"
            },
            "miss_distance": {
                "astronomical": "0.0718661056",
                "lunar": "27.9559150784",
                "kilometers": "10751016.322955072",
                "miles": "6680371.7701291136"
            },
            "orbiting_body": "Earth"
        }
    ],
    "orbital_data": {
        "orbit_id": "1",
        "orbit_determination_date": "2019-10-29 10:12:05",
        "first_observation_date": "2019-10-27",
        "last_observation_date": "2019-10-29",
        "data_arc_in_days": 2,
        "observations_used": 13,
        "orbit_uncertainty": "9",
        "minimum_orbit_intersection": ".0345641",
        "jupiter_tisserand_invariant": "3.316",
        "epoch_osculation": "2458784.5",
        "eccentricity": ".6166311650580871",
        "semi_major_axis": "2.283952544303313",
        "inclination": "6.020036403576194",
        "ascending_node_longitude": "178.4887136028269",
        "orbital_period": "1260.750185677063",
        "perihelion_distance": ".8755962259721787",
        "perihelion_argument": "152.9683848430277",
        "aphelion_distance": "3.692308862634447",
        "perihelion_time": "2458738.880166035254",
        "mean_anomaly": "13.02648249739405",
        "mean_motion": ".2855442768042651",
        "equinox": "J2000",
        "orbit_class": {
            "orbit_class_type": "APO",
            "orbit_class_description": "Near-Earth asteroid orbits which cross the Earth’s orbit similar to that of 1862 Apollo",
            "orbit_class_range": "a (semi-major axis) > 1.0 AU; q (perihelion) < 1.017 AU"
        }
    },
    "is_sentry_object": false
}